ONEWEB-0697             
1 61603U 24188K   26027.53343717 -.00000345  00000+0 -10087-2 0  9990
2 61603  87.8812  49.0633 0001647 119.6082 240.5211 13.11414493 66011
ONEWEB-0698             
1 61604U 24188L   26027.51141163  .00000445  00000+0  12194-2 0  9990
2 61604  87.8814  49.0832 0000769 120.6648 239.4556 13.11414572 66038
ONEWEB-0699             
1 61605U 24188M   26027.56499731  .00000091  00000+0  22415-3 0  9998
2 61605  87.8765  64.2889 0001574 118.1352 241.9935 13.10370326 64892
ONEWEB-0700             
1 61606U 24188N   26027.56667222  .00000917  00000+0  25901-2 0  9990
2 61606  87.8774  64.1783 0002101 116.4770 243.6573 13.10368476 64886
ONEWEB-0701             
1 61607U 24188P   26027.50688278 -.00000608  00000+0 -17789-2 0  9993
2 61607  87.8769  64.3004 0001605 124.7139 235.4140 13.10373964 64885
ONEWEB-0702             
1 61608U 24188Q   26027.48088109 -.00000162  00000+0 -49176-3 0  9999
2 61608  87.8831  48.9714 0001942 125.3111 234.8199 13.11417999 66048
ONEWEB-0704             
1 61609U 24188R   26027.57163248 -.00000219  00000+0 -66481-3 0  9999
2 61609  87.8775  64.2587 0002054 125.0785 235.0535 13.10369372 64870
ONEWEB-0705             
1 61610U 24188S   26027.11846473 -.00000472  00000+0 -13883-2 0  9997
2 61610  87.8768  64.3666 0002912 110.0853 250.0588 13.10372256 56989
